$$SOE
2460154.500000000, A.D. 2023-Jul-29 00:00:00.0000, 2.128144194186941E+08, -2.958613821881969E+08, 1.264636494711262E+07,
2460161.500000000, A.D. 2023-Aug-05 00:00:00.0000, 2.212200193252141E+08, -2.877657150754952E+08, 1.236344615688683E+07,
2460168.500000000, A.D. 2023-Aug-12 00:00:00.0000, 2.294013989059141E+08, -2.793784367170739E+08, 1.206799918125710E+07,
2460175.500000000, A.D. 2023-Aug-19 00:00:00.0000, 2.373473896219932E+08, -2.707045440884500E+08, 1.176017217418472E+07,
2460182.500000000, A.D. 2023-Aug-26 00:00:00.0000, 2.450468217483861E+08, -2.617494960226596E+08, 1.144013151962216E+07,
2460189.500000000, A.D. 2023-Sep-02 00:00:00.0000, 2.524885437535426E+08, -2.525192258369665E+08, 1.110806241752070E+07,
2460196.500000000, A.D. 2023-Sep-09 00:00:00.0000, 2.596614431423788E+08, -2.430201534429001E+08, 1.076416943943264E+07,
2460203.500000000, A.D. 2023-Sep-16 00:00:00.0000, 2.665544689534057E+08, -2.332591968747279E+08, 1.040867702932152E+07,
2460210.500000000, A.D. 2023-Sep-23 00:00:00.0000, 2.731566563377140E+08, -2.232437828171178E+08, 1.004182993023185E+07,
2460217.500000000, A.D. 2023-Sep-30 00:00:00.0000, 2.794571528802561E+08, -2.129818548016919E+08, 9.663893660516664E+06,
2460224.500000000, A.D. 2023-Oct-07 00:00:00.0000, 2.854452442940772E+08, -2.024818794680331E+08, 9.275155205488794E+06,
2460231.500000000, A.D. 2023-Oct-14 00:00:00.0000, 2.911103804943191E+08, -1.917528540434116E+08, 8.875923551369928E+06,
2460238.500000000, A.D. 2023-Oct-21 00:00:00.0000, 2.964422052343535E+08, -1.808043132711121E+08, 8.466529889148556E+06,
2460245.500000000, A.D. 2023-Oct-28 00:00:00.0000, 3.014305878205377E+08, -1.696463333585082E+08, 8.047327796973750E+06,
2460252.500000000, A.D. 2023-Nov-04 00:00:00.0000, 3.060656555787244E+08, -1.582895335463462E+08, 7.618693446107343E+06,
2460259.500000000, A.D. 2023-Nov-11 00:00:00.0000, 3.103378271533149E+08, -1.467450757298379E+08, 7.181025758283392E+06,
2460266.500000000, A.D. 2023-Nov-18 00:00:00.0000, 3.142378467412476E+08, -1.350246620281020E+08, 6.734746482199304E+06,
2460273.500000000, A.D. 2023-Nov-25 00:00:00.0000, 3.177568191958734E+08, -1.231405301157531E+08, 6.280300177506126E+06,
2460280.500000000, A.D. 2023-Dec-02 00:00:00.0000, 3.208862458696732E+08, -1.111054461713100E+08, 5.818154096155331E+06,
2460287.500000000, A.D. 2023-Dec-09 00:00:00.0000, 3.236180610915123E+08, -9.893269535499172E+07, 5.348797942535486E+06,
2460294.500000000, A.D. 2023-Dec-16 00:00:00.0000, 3.259446693588178E+08, -8.663606966824557E+07, 4.872743480276451E+06,
2460301.500000000, A.D. 2023-Dec-23 00:00:00.0000, 3.278589833645466E+08, -7.422985238365456E+07, 4.390524003787376E+06,
2460308.500000000, A.D. 2023-Dec-30 00:00:00.0000, 3.293544612777488E+08, -6.172879789143857E+07, 3.902693878874782E+06,
2460315.500000000, A.D. 2024-Jan-06 00:00:00.0000, 3.304251412463587E+08, -4.914810924766234E+07, 3.409828118247468E+06,
2460322.500000000, A.D. 2024-Jan-13 00:00:00.0000, 3.310656760088404E+08, -3.650341517879604E+07, 2.912521548854217E+06,
2460329.500000000, A.D. 2024-Jan-20 00:00:00.0000, 3.312713685359411E+08, -2.381074342812103E+07, 2.411387707756507E+06,
2460336.500000000, A.D. 2024-Jan-27 00:00:00.0000, 3.310382063641556E+08, -1.108648979308872E+07, 1.907057704579364E+06,
2460343.500000000, A.D. 2024-Feb-03 00:00:00.0000, 3.303628938748692E+08, 1.652616161596483E+06, 1.400179012265605E+06,
2460350.500000000, A.D. 2024-Feb-10 00:00:00.0000, 3.292428824729431E+08, 1.438954835237028E+07, 8.914141381312106E+05,
2460357.500000000, A.D. 2024-Feb-17 00:00:00.0000, 3.276763984785807E+08, 2.710702428614980E+07, 3.814391658413429E+05,
2460364.500000000, A.D. 2024-Feb-24 00:00:00.0000, 3.256624684474255E+08, 3.978754789909975E+07, -1.290578295028992E+05,
2460371.500000000, A.D. 2024-Mar-02 00:00:00.0000, 3.232009416366661E+08, 5.241345490755824E+07, -6.393784925799407E+05,
2460378.500000000, A.D. 2024-Mar-09 00:00:00.0000, 3.202925094593842E+08, 6.496696038435367E+07, -1.148816035761271E+06,
2460385.500000000, A.D. 2024-Mar-16 00:00:00.0000, 3.169387220430773E+08, 7.743020849368864E+07, -1.656657235262543E+06,
2460392.500000000, A.D. 2024-Mar-23 00:00:00.0000, 3.131420015264375E+08, 8.978532519522397E+07, -2.162184465290532E+06,
2460399.500000000, A.D. 2024-Mar-30 00:00:00.0000, 3.089056496260473E+08, 1.020144735679090E+08, -2.664677553733990E+06,
2460406.500000000, A.D. 2024-Apr-06 00:00:00.0000, 3.042338495503557E+08, 1.140999080291131E+08, -3.163415744007222E+06,
2460413.500000000, A.D. 2024-Apr-13 00:00:00.0000, 2.991316656624688E+08, 1.260240278948682E+08, -3.657680006664760E+06,
2460420.500000000, A.D. 2024-Apr-20 00:00:00.0000, 2.936050398263371E+08, 1.377694325510269E+08, -4.146755379359797E+06,
2460427.500000000, A.D. 2024-Apr-27 00:00:00.0000, 2.876607828577323E+08, 1.493189772529615E+08, -4.629933225334361E+06,
2460434.500000000, A.D. 2024-May-04 00:00:00.0000, 2.813065611559199E+08, 1.606558284157246E+08, -5.106513459265381E+06,
2460441.500000000, A.D. 2024-May-11 00:00:00.0000, 2.745508787874199E+08, 1.717635178505035E+08, -5.575806753906548E+06,
2460448.500000000, A.D. 2024-May-18 00:00:00.0000, 2.674030551796452E+08, 1.826259955293204E+08, -6.037136716229141E+06,
2460455.500000000, A.D. 2024-May-25 00:00:00.0000, 2.598731985703784E+08, 1.932276804473802E+08, -6.489842018163949E+06,
2460462.500000000, A.D. 2024-Jun-01 00:00:00.0000, 2.519721754474031E+08, 2.035535091285499E+08, -6.933278473910198E+06,
2460469.500000000, A.D. 2024-Jun-08 00:00:00.0000, 2.437115764572913E+08, 2.135889813818054E+08, -7.366821070780337E+06,
2460476.500000000, A.D. 2024-Jun-15 00:00:00.0000, 2.351036794677167E+08, 2.233202035073086E+08, -7.789865930354238E+06,
2460483.500000000, A.D. 2024-Jun-22 00:00:00.0000, 2.261614090945397E+08, 2.327339298007351E+08, -8.201831998284906E+06,
2460490.500000000, A.D. 2024-Jun-29 00:00:00.0000, 2.168982909085548E+08, 2.418176002504780E+08, -8.602162403383493E+06,
2460497.500000000, A.D. 2024-Jul-06 00:00:00.0000, 2.073284033431883E+08, 2.505593717262731E+08, -8.990325919313535E+06,
2460504.500000000, A.D. 2024-Jul-13 00:00:00.0000, 1.974663296509987E+08, 2.589481452865091E+08, -9.365818468746886E+06,
2460511.500000000, A.D. 2024-Jul-20 00:00:00.0000, 1.873271083261750E+08, 2.669735906015049E+08, -9.728164386317283E+06,
2460518.500000000, A.D. 2024-Jul-27 00:00:00.0000, 1.769261817510590E+08, 2.746261664363827E+08, -1.007691745245597E+07,
2460525.500000000, A.D. 2024-Aug-03 00:00:00.0000, 1.662793437597492E+08, 2.818971367714500E+08, -1.041166174983925E+07,
2460532.500000000, A.D. 2024-Aug-10 00:00:00.0000, 1.554026867021132E+08, 2.887785825557505E+08, -1.073201235614212E+07,
2460539.500000000, A.D. 2024-Aug-17 00:00:00.0000, 1.443125484638239E+08, 2.952634091612028E+08, -1.103761587570067E+07,
2460546.500000000, A.D. 2024-Aug-24 00:00:00.0000, 1.330254598635559E+08, 3.013453496038972E+08, -1.132815081629674E+07,
2460553.500000000, A.D. 2024-Aug-31 00:00:00.0000, 1.215580929160758E+08, 3.070189636000743E+08, -1.160332783018954E+07,
2460560.500000000, A.D. 2024-Sep-07 00:00:00.0000, 1.099272106755272E+08, 3.122796327497137E+08, -1.186288984771255E+07,
2460567.500000000, A.D. 2024-Sep-14 00:00:00.0000, 9.814961906736983E+07, 3.171235530439541E+08, -1.210661203693160E+07,
2460574.500000000, A.D. 2024-Sep-21 00:00:00.0000, 8.624211897459300E+07, 3.215477253291724E+08, -1.233430137786098E+07,
2460581.500000000, A.D. 2024-Sep-28 00:00:00.0000, 7.422145834148128E+07, 3.255499407369573E+08, -1.254579607749245E+07,
2460588.500000000, A.D. 2024-Oct-05 00:00:00.0000, 6.210428818187582E+07, 3.291287613548238E+08, -1.274096517134616E+07,
2460595.500000000, A.D. 2024-Oct-12 00:00:00.0000, 4.990712232502817E+07, 3.322834994013297E+08, -1.291970804666696E+07,
2460602.500000000, A.D. 2024-Oct-19 00:00:00.0000, 3.764629930115067E+07, 3.350141949156475E+08, -1.308195375949095E+07,
2460609.500000000, A.D. 2024-Oct-26 00:00:00.0000, 2.533794644923550E+07, 3.373215914477103E+08, -1.322766021870692E+07,
2460616.500000000, A.D. 2024-Nov-02 00:00:00.0000, 1.299794658683624E+07, 3.392071098902826E+08, -1.335681328387880E+07,
2460623.500000000, A.D. 2024-Nov-09 00:00:00.0000, 6.419073893578924E+05, 3.406728207597480E+08, -1.346942579512325E+07,
2460630.500000000, A.D. 2024-Nov-16 00:00:00.0000, -1.171486647420068E+07, 3.417214152046204E+08, -1.356553654835366E+07,
2460637.500000000, A.D. 2024-Nov-23 00:00:00.0000, -2.405739840880001E+07, 3.423561749604225E+08, -1.364520923491216E+07,
2460644.500000000, A.D. 2024-Nov-30 00:00:00.0000, -3.637106198792077E+07, 3.425809414642676E+08, -1.370853137836865E+07,
2460651.500000000, A.D. 2024-Dec-07 00:00:00.0000, -4.864159971069366E+07, 3.424000847920970E+08, -1.375561328232153E+07,
2460658.500000000, A.D. 2024-Dec-14 00:00:00.0000, -6.085513918421140E+07, 3.418184738719171E+08, -1.378658683570175E+07,
2460665.500000000, A.D. 2024-Dec-21 00:00:00.0000, -7.299820913470039E+07, 3.408414469418703E+08, -1.380160407340956E+07,
2460672.500000000, A.D. 2024-Dec-28 00:00:00.0000, -8.505775337605542E+07, 3.394747794652728E+08, -1.380083592195989E+07,
2460679.500000000, A.D. 2025-Jan-04 00:00:00.0000, -9.702114026017326E+07, 3.377246520482337E+08, -1.378447118048100E+07,
2460686.500000000, A.D. 2025-Jan-11 00:00:00.0000, -1.088761695545934E+08, 3.355976201777803E+08, -1.375271544180195E+07,
2460693.500000000, A.D. 2025-Jan-18 00:00:00.0000, -1.206110777935815E+08, 3.331005849930279E+08, -1.370578995025818E+07,
2460700.500000000, A.D. 2025-Jan-25 00:00:00.0000, -1.322145419970873E+08, 3.302407647285200E+08, -1.364393046215214E+07,
2460707.500000000, A.D. 2025-Feb-01 00:00:00.0000, -1.436756817085383E+08, 3.270256669002402E+08, -1.356738613341695E+07,
2460714.500000000, A.D. 2025-Feb-08 00:00:00.0000, -1.549840594311889E+08, 3.234630613393962E+08, -1.347641844235508E+07,
2460721.500000000, A.D. 2025-Feb-15 00:00:00.0000, -1.661296795686934E+08, 3.195609541212892E+08, -1.337130015467605E+07,
$$EOE